NORAD_CAT_ID,OBJECT_NAME,OBJECT_TYPE,EPOCH,MEAN_MOTION,ECCENTRICITY,INCLINATION,RA_OF_ASC_NODE,ARG_OF_PERICENTER,MEAN_ANOMALY,BSTAR,MEAN_MOTION_DOT,MEAN_MOTION_DDOT,TLE_LINE0,TLE_LINE1,TLE_LINE2,SEMIMAJOR_AXIS,PERIOD,APOGEE,PERIGEE,DECAYED
55674.0,STARLINK-5462,PAYLOAD,2024-08-19 12:49:26,14.98332041,0.0002577,70.0011,154.3152,272.426,87.6604,-3.0423e-05,-4.56e-06,0.0,0 STARLINK-5462,1 55674U 23021AY  24232.53433981 -.00000456  00000-0 -30423-4 0  9997,2 55674  70.0011 154.3152 0002577 272.4260  87.6604 14.98332041 84337,6950.187,96.107,573.843,570.261,0.0
55674.0,STARLINK-5462,PAYLOAD,2024-08-19 20:50:07,14.98322971,0.0002424,70.0015,153.4737,268.7985,91.2896,3.041e-05,2.7e-06,0.0,0 STARLINK-5462,1 55674U 23021AY  24232.86814455  .00000270  00000-0  30410-4 0  9990,2 55674  70.0015 153.4737 0002424 268.7985  91.2896 14.98322971 84080,6950.215,96.107,573.764,570.395,0.0
55674.0,STARLINK-5462,PAYLOAD,2024-08-20 04:50:47,14.98327992,0.0002831,70.0003,152.6328,266.718,93.3655,6.8399e-05,7.23e-06,0.0,0 STARLINK-5462,1 55674U 23021AY  24233.20194129  .00000723  00000-0  68399-4 0  9998,2 55674  70.0003 152.6328 0002831 266.7180  93.3655 14.98327992 84434,6950.199,96.107,574.032,570.096,0.0
55674.0,STARLINK-5462,PAYLOAD,2024-08-21 04:52:47,14.98342728,0.0002761,70.0004,150.1075,267.2213,92.863,0.00011422,1.271e-05,0.0,0 STARLINK-5462,1 55674U 23021AY  24234.20332987  .00001271  00000-0  11422-3 0  9998,2 55674  70.0004 150.1075 0002761 267.2213  92.8630 14.98342728 84286,6950.154,96.106,573.937,570.1,0.0
55674.0,STARLINK-5462,PAYLOAD,2024-08-21 19:18:01,14.98322837,0.0003063,70.0003,148.5924,269.0488,91.032,2.6748e-05,2.26e-06,0.0,0 STARLINK-5462,1 55674U 23021AY  24234.80418410  .00000226  00000-0  26748-4 0  9997,2 55674  70.0003 148.5924 0003063 269.0488  91.0320 14.98322837 84678,6950.215,96.107,574.209,569.951,0.0
55674.0,STARLINK-5462,PAYLOAD,2024-08-21 20:54:09,14.98322478,0.0003036,70.0001,148.4243,270.576,89.5051,2.679e-05,2.27e-06,0.0,0 STARLINK-5462,1 55674U 23021AY  24234.87094481  .00000227  00000-0  26790-4 0  9990,2 55674  70.0001 148.4243 0003036 270.5760  89.5051 14.98322478 84381,6950.216,96.107,574.191,569.971,0.0
